SARAL                   
1 39086U 13009A   23029.48894356  .00000066  00000+0  40786-4 0  9992
2 39086  98.5458 216.8044 0000948  42.8339 317.2918 14.32035841518839
GAOFEN 1                
1 39150U 13018A   23029.44706686  .00001243  00000+0  18565-3 0  9995
2 39150  98.0476 100.4558 0020563 278.1367  81.7503 14.76453835526088
VNREDSAT 1              
1 39160U 13021B   23029.41406650  .00001182  00000+0  23967-3 0  9999
2 39160  98.0565 104.8203 0001677  73.7855 286.3516 14.62983656519655
ARIRANG-5 (KOMPSAT-5)   
1 39227U 13042A   23029.51995829  .00001046  00000+0  79013-4 0  9991
2 39227  97.6290 217.3773 0003066  50.2226  34.7035 15.04517353518279
SKYSAT-A                
1 39418U 13066C   23028.74842258  .00003303  00000+0  26174-3 0  9997
2 39418  97.5394  98.7303 0032371 216.1448 143.7588 15.00837327502432
DUBAISAT-2              
1 39419U 13066D   23029.48552190  .00003824  00000+0  34653-3 0  9992
2 39419  97.4255  54.9123 0011958 233.8254 126.1851 14.95858813500972
GPM-CORE                
1 39574U 14009C   23028.90863682  .00026216  00000+0  37050-3 0  9993
2 39574  64.9974 140.8911 0012212 267.1041  92.8708 15.56400913506685
SENTINEL-1A             
1 39634U 14016A   23029.46481850  .00000144  00000+0  40295-4 0  9991
2 39634  98.1815  38.7840 0001267  81.7659 278.3692 14.59200180469984
KAZEOSAT 1              
1 39731U 14024A   23029.41685845  .00000445  00000+0  14893-3 0  9991
2 39731  98.4435 107.7790 0001249  84.1349 275.9980 14.41991740460655
ALOS-2                  
1 39766U 14029A   23029.43388144 -.00000010  00000+0  55168-5 0  9999
2 39766  97.9201 128.3277 0001514  90.9663 269.1722 14.79472327469043
KAZEOSAT 2              
1 40010U 14033A   23029.41131200  .00001053  00000+0  13857-3 0  9999
2 40010  97.6938 271.2813 0015275  61.3301 298.9399 14.82087441465910
HODOYOSHI-4             
1 40011U 14033B   23029.45538480  .00001855  00000+0  23784-3 0  9995
2 40011  97.6457 257.9621 0027765  59.0543 301.3335 14.82137527465565
DEIMOS-2                
1 40013U 14033D   23029.47764220  .00002677  00000+0  31244-3 0  9995
2 40013  97.7400 285.6152 0002751  86.9603 273.1880 14.85978641466753
HODOYOSHI-3             
1 40015U 14033F   23029.09182421  .00000936  00000+0  13101-3 0  9990
2 40015  97.6180 236.5280 0037917  86.7192 273.8357 14.79261654464687
SPOT 7                  
1 40053U 14034A   23029.47165739  .00000724  00000+0  16556-3 0  9990
2 40053  98.2230  98.2800 0001009  83.2876 276.8430 14.58562055457039
SKYSAT-B                
1 40072U 14037D   23028.89303572  .00001235  00000+0  16247-3 0  9993
2 40072  98.3797 273.1858 0005482 322.1775  37.9051 14.82120270462631
WORLDVIEW-3 (WV-3)      
1 40115U 14048A   23028.89367034  .00001284  00000+0  15591-3 0  9991
2 40115  97.8327 105.3764 0002582 121.9455 238.2012 14.85248680458572
GAOFEN 2                
1 40118U 14049A   23029.41688168  .00001862  00000+0  24787-3 0  9997
2 40118  97.7351  95.2484 0005115 303.5856  56.4850 14.80818541456533
YAOGAN 21               
1 40143U 14053A   23029.54264016  .00010608  00000+0  44566-3 0  9991
2 40143  97.3236  96.9307 0012499 144.9726 327.1479 15.23543884466974
YAOGAN 22               
1 40275U 14063A   23028.77439792 -.00000030  00000+0  40306-4 0  9995
2 40275 100.5886 154.0761 0006706  97.2855 262.9019 13.15449716397376
ASNARO                  
1 40298U 14070A   23029.56364858  .00011744  00000+0  56258-3 0  9991
2 40298  97.4508 113.9999 0005470 232.8546 240.1801 15.19078391456538
HODOYOSHI-1             
1 40299U 14070B   23029.51910340  .00011049  00000+0  38273-3 0  9995
2 40299  97.2155  95.9997 0012680  57.1996  55.0124 15.29934322457583
QSAT-EOS                
1 40301U 14070D   23029.51082913  .00031489  00000+0  60002-3 0  9990
2 40301  97.1771  98.4280 0014913  12.6157 111.7779 15.48007267458306
YAOGAN 23               
1 40305U 14071A   23029.57714796  .00014888  00000+0  59377-3 0  9999
2 40305  97.6362 349.3031 0002804  84.0131  29.0531 15.25290566454971
YAOGAN 24               
1 40310U 14072A   23029.42511612  .00001580  00000+0  23488-3 0  9991
2 40310  97.9959 152.2909 0015250 269.4165  90.5281 14.76318486441576
CBERS 4                 
1 40336U 14079A   23029.46553088  .00000242  00000+0  99222-4 0  9997
2 40336  98.4600 104.2640 0001611 104.9132 255.2243 14.35461626426835
RESURS P2               
1 40360U 14087A   23029.52949498  .00011708  00000+0  29689-3 0  9992
2 40360  97.1919 115.1540 0008622   3.1593 121.7321 15.39808002453002
YAOGAN 26               
1 40362U 14088A   23029.56345162  .00011333  00000+0  46783-3 0  9995
2 40362  97.1170  73.2423 0006605  13.3917 144.3669 15.24162699450450
SMAP                    
1 40376U 15003A   23029.48091950  .00000648  00000+0  13446-3 0  9999
2 40376  98.1290  38.0080 0001506  97.4375 262.6999 14.63392774427043
KOMPSAT-3A              
1 40536U 15014A   23029.52088572  .00007748  00000+0  44764-3 0  9995
2 40536  97.5575 334.3693 0003305  29.5586  98.4942 15.12577069433206
SENTINEL-2A             
1 40697U 15028A   23029.13756629 -.00000054  00000+0 -39048-5 0  9996
2 40697  98.5692 105.6345 0001317  97.8522 262.3067 14.30811931397125
GAOFEN 8                
1 40701U 15030A   23029.59612506  .00013901  00000+0  58605-3 0  9991
2 40701  97.5873 171.3112 0008706  19.0583 109.6736 15.23403257422817
CARBONITE 1 (CBNT-1)    
1 40718U 15032D   23029.40732815  .00002464  00000+0  36456-3 0  9999
2 40718  97.7071 248.6031 0016918   8.3562 351.7872 14.75934747406741
YAOGAN 27               
1 40878U 15040A   23029.25982543 -.00000004  00000+0  10000-3 0  9999
2 40878 100.1089  56.2890 0008558 180.0453 180.0672 13.15986432356735
GAOFEN 9-01             
1 40894U 15047A   23029.43116978  .00001389  00000+0  20537-3 0  9997
2 40894  97.7912  97.1920 0032103 197.6456 162.3634 14.76415394397522
LAPAN-A2                
1 40931U 15052B   23029.20458088  .00001455  00000+0  11255-3 0  9992
2 40931   5.9950 358.4468 0012614 125.9758 234.1960 14.77004493396772
YAOGAN 28               
1 41026U 15064A   23029.58717096  .00010873  00000+0  45413-3 0  9996
2 41026  97.5805 179.2708 0004371 267.7436 154.7404 15.23807137402663
YAOGAN 29               
1 41038U 15069A   23029.42051588  .00000853  00000+0  11681-3 0  9991
2 41038  98.0623  35.7678 0002405  86.7591 273.3888 14.81083493387737
KENT RIDGE 1            
1 41167U 15077B   23029.26558362  .00004304  00000+0  21138-3 0  9990
2 41167  14.9843   2.2766 0010772 260.4758 136.5580 15.10937290393440
TELEOS 1                
1 41169U 15077D   23029.17658896  .00011199  00000+0  53566-3 0  9995
2 41169  14.9899 323.3584 0010299 329.4716  30.5027 15.15548723393782
GAOFEN 4                
1 41194U 15083A   23028.86069485 -.00000333  00000+0  00000+0 0  9995
2 41194   0.0981 180.2495 0001929 141.2976 221.8294  1.00270679 26108
JASON-3                 
1 41240U 16002A   23029.50600804 -.00000028  00000+0  14276-3 0  9992
2 41240  66.0399 179.5565 0007380 271.0162  89.0008 12.80931462329006
SENTINEL-3A             
1 41335U 16011A   23029.43977522  .00000127  00000+0  70607-4 0  9993
2 41335  98.6254  98.4800 0001096  96.7742 263.3563 14.26735214361993
ZIYUAN 3-2 (ZY 3-2)     
1 41556U 16033A   23029.54156645  .00009265  00000+0  41842-3 0  9999
2 41556  97.5110 103.0841 0000311 177.6520 294.2642 15.21192061370272
NUSAT-1 (FRESCO)        
1 41557U 16033B   23029.54199394  .00035789  00000+0  80059-3 0  9991
2 41557  97.3866 133.7615 0008753 287.0480 196.9138 15.43361269372134
NUSAT-2 (BATATA)        
1 41558U 16033C   23029.35693411  .00038594  00000+0  81613-3 0  9994
2 41558  97.4127 140.6121 0008294 277.6748 167.0520 15.45017008372413
CARTOSAT-2C             
1 41599U 16040A   23029.52821756  .00006337  00000+0  30273-3 0  9997
2 41599  97.4579  91.7525 0013627 110.8849   2.3964 15.19301595366255
SKYSAT-C1               
1 41601U 16040C   23029.11174691  .00013116  00000+0  34873-3 0  9998
2 41601  97.1311 103.6900 0001428  77.4828 282.6578 15.38356874368696
LAPAN-A3                
1 41603U 16040E   23029.56162916  .00002877  00000+0  13056-3 0  9998
2 41603  97.1825  61.4927 0014748  85.5854  65.8922 15.21477771366409
BIROS                   
1 41604U 16040F   23028.68319785  .00006719  00000+0  25843-3 0  9995
2 41604  97.1837  69.5226 0012552  60.7036 299.5456 15.26638454366794
GAOFEN 3                
1 41727U 16049A   23029.50159687  .00000161  00000+0  62192-4 0  9999
2 41727  98.4077  39.5336 0001262  59.7585 300.3726 14.42226502340676
SKYSAT-C4               
1 41771U 16058B   23029.12917289  .00012696  00000+0  33909-3 0  9995
2 41771  97.0899  92.4404 0001057   2.1309 357.9941 15.38223987355655
SKYSAT-C5               
1 41772U 16058C   23029.55817535  .00007349  00000+0  26275-3 0  9993
2 41772  97.2367  91.9541 0002737 101.8329 258.3218 15.29093512354298
SKYSAT-C2               
1 41773U 16058D   23029.12153388  .00012691  00000+0  33929-3 0  9996
2 41773  97.0913  92.8261 0000684  32.2370 327.8917 15.38194489355671
SKYSAT-C3               
1 41774U 16058E   23028.75226505  .00015797  00000+0  35214-3 0  9996
2 41774  97.0906  94.2597 0001641  56.8084 303.3322 15.43662311355736
ALSAT 1B                
1 41785U 16059C   23029.39640627  .00000675  00000+0  11983-3 0  9991
2 41785  97.8808  71.4553 0008632 220.3428 139.7137 14.70220161339013
PATHFINDER 1            
1 41787U 16059E   23029.08241126  .00001083  00000+0  21277-3 0  9991
2 41787  97.8852  68.7843 0030158 170.4102 189.7655 14.64282190338750
SCATSAT 1               
1 41790U 16059H   23028.83787894  .00000289  00000+0  84219-4 0  9997
2 41790  98.2913  74.9451 0004402 223.1340 136.9510 14.51007308335757
GOKTURK 1A              
1 41875U 16073A   23029.48638188  .00000924  00000+0  19052-3 0  9998
2 41875  98.1529 285.8526 0001639  75.7427 284.3929 14.62724185328323
RESOURCESAT-2A          
1 41877U 16074A   23029.44887636  .00000297  00000+0  15516-3 0  9995
2 41877  98.6970 106.7138 0002102  62.4412 297.6981 14.21640396318873
